ONEWEB-0233             
1 48795U 21045AE  24284.55262093  .00000136  00000+0  32827-3 0  9991
2 48795  87.9122  21.5702 0002153  99.1863 260.9511 13.15549896163485
ONEWEB-0190             
1 48796U 21045AF  24284.53914437 -.00000001  00000+0 -35693-4 0  9994
2 48796  87.9123  21.5333 0002818 107.5294 252.6144 13.15550318163556
ONEWEB-0236             
1 48797U 21045AG  24284.78474004 -.00003700  00000+0 -98626-2 0  9995
2 48797  87.9128  21.4831 0001802  97.3414 262.7921 13.15567172164592
ONEWEB-0248             
1 48798U 21045AH  24284.26499974  .00000323  00000+0  82492-3 0  9993
2 48798  87.9121  21.5668 0002614  96.1496 263.9932 13.15553258163565
ONEWEB-0225             
1 48799U 21045AJ  24284.51536288  .00000072  00000+0  15839-3 0  9994
2 48799  87.9129  21.5346 0002287 102.8835 257.2551 13.15551717163601
ONEWEB-0215             
1 48800U 21045AK  24284.78948421 -.00000033  00000+0 -12130-3 0  9992
2 48800  87.9118  21.4478 0002683  98.9631 261.1803 13.15548311164630
ONEWEB-0216             
1 48801U 21045AL  24284.57081375 -.00005581  00000+0 -14862-1 0  9991
2 48801  87.9121  21.5337 0002090  99.6449 260.4917 13.15581472163493
ONEWEB-0239             
1 48802U 21045AM  24284.80376083  .00000115  00000+0  27216-3 0  9996
2 48802  87.9131  21.4733 0002753  94.8039 265.3405 13.15549387164702
