<?xml version="1.0" encoding="UTF-8"?>
<ndm xmlns:xsi="http://www.w3.org/2001/XMLSchema-instance" xsi:noNamespaceSchemaLocation="https://sanaregistry.org/r/ndmxml_unqualified/ndmxml-2.0.0-master-2.0.xsd">
<omm id="CCSDS_OMM_VERS" version="2.0">
<header><CREATION_DATE/><ORIGINATOR/></header><body><segment><metadata><OBJECT_NAME>ONEWEB-0233</OBJECT_NAME><OBJECT_ID>2021-045AE</OBJECT_ID><CENTER_NAME>EARTH</CENTER_NAME><REF_FRAME>TEME</REF_FRAME><TIME_SYSTEM>UTC</TIME_SYSTEM><MEAN_ELEMENT_THEORY>SGP4</MEAN_ELEMENT_THEORY></metadata><data><meanElements><EPOCH>2024-10-10T13:15:46.448352</EPOCH><MEAN_MOTION>13.15549896</MEAN_MOTION><ECCENTRICITY>.0002153</ECCENTRICITY><INCLINATION>87.9122</INCLINATION><RA_OF_ASC_NODE>21.5702</RA_OF_ASC_NODE><ARG_OF_PERICENTER>99.1863</ARG_OF_PERICENTER><MEAN_ANOMALY>260.9511</MEAN_ANOMALY></meanElements><tleParameters><EPHEMERIS_TYPE>0</EPHEMERIS_TYPE><CLASSIFICATION_TYPE>U</CLASSIFICATION_TYPE><NORAD_CAT_ID>48795</NORAD_CAT_ID><ELEMENT_SET_NO>999</ELEMENT_SET_NO><REV_AT_EPOCH>16348</REV_AT_EPOCH><BSTAR>.32827E-3</BSTAR><MEAN_MOTION_DOT>.136E-5</MEAN_MOTION_DOT><MEAN_MOTION_DDOT>0</MEAN_MOTION_DDOT></tleParameters></data></segment></body></omm>
<omm id="CCSDS_OMM_VERS" version="2.0">
<header><CREATION_DATE/><ORIGINATOR/></header><body><segment><metadata><OBJECT_NAME>ONEWEB-0190</OBJECT_NAME><OBJECT_ID>2021-045AF</OBJECT_ID><CENTER_NAME>EARTH</CENTER_NAME><REF_FRAME>TEME</REF_FRAME><TIME_SYSTEM>UTC</TIME_SYSTEM><MEAN_ELEMENT_THEORY>SGP4</MEAN_ELEMENT_THEORY></metadata><data><meanElements><EPOCH>2024-10-10T12:56:22.073568</EPOCH><MEAN_MOTION>13.15550318</MEAN_MOTION><ECCENTRICITY>.0002818</ECCENTRICITY><INCLINATION>87.9123</INCLINATION><RA_OF_ASC_NODE>21.5333</RA_OF_ASC_NODE><ARG_OF_PERICENTER>107.5294</ARG_OF_PERICENTER><MEAN_ANOMALY>252.6144</MEAN_ANOMALY></meanElements><tleParameters><EPHEMERIS_TYPE>0</EPHEMERIS_TYPE><CLASSIFICATION_TYPE>U</CLASSIFICATION_TYPE><NORAD_CAT_ID>48796</NORAD_CAT_ID><ELEMENT_SET_NO>999</ELEMENT_SET_NO><REV_AT_EPOCH>16355</REV_AT_EPOCH><BSTAR>-.35693E-4</BSTAR><MEAN_MOTION_DOT>-.1E-7</MEAN_MOTION_DOT><MEAN_MOTION_DDOT>0</MEAN_MOTION_DDOT></tleParameters></data></segment></body></omm>
<omm id="CCSDS_OMM_VERS" version="2.0">
<header><CREATION_DATE/><ORIGINATOR/></header><body><segment><metadata><OBJECT_NAME>ONEWEB-0236</OBJECT_NAME><OBJECT_ID>2021-045AG</OBJECT_ID><CENTER_NAME>EARTH</CENTER_NAME><REF_FRAME>TEME</REF_FRAME><TIME_SYSTEM>UTC</TIME_SYSTEM><MEAN_ELEMENT_THEORY>SGP4</MEAN_ELEMENT_THEORY></metadata><data><meanElements><EPOCH>2024-10-10T18:50:01.539456</EPOCH><MEAN_MOTION>13.15567172</MEAN_MOTION><ECCENTRICITY>.0001802</ECCENTRICITY><INCLINATION>87.9128</INCLINATION><RA_OF_ASC_NODE>21.4831</RA_OF_ASC_NODE><ARG_OF_PERICENTER>97.3414</ARG_OF_PERICENTER><MEAN_ANOMALY>262.7921</MEAN_ANOMALY></meanElements><tleParameters><EPHEMERIS_TYPE>0</EPHEMERIS_TYPE><CLASSIFICATION_TYPE>U</CLASSIFICATION_TYPE><NORAD_CAT_ID>48797</NORAD_CAT_ID><ELEMENT_SET_NO>999</ELEMENT_SET_NO><REV_AT_EPOCH>16459</REV_AT_EPOCH><BSTAR>-.98626E-2</BSTAR><MEAN_MOTION_DOT>-.37E-4</MEAN_MOTION_DOT><MEAN_MOTION_DDOT>0</MEAN_MOTION_DDOT></tleParameters></data></segment></body></omm>
<omm id="CCSDS_OMM_VERS" version="2.0">
<header><CREATION_DATE/><ORIGINATOR/></header><body><segment><metadata><OBJECT_NAME>ONEWEB-0248</OBJECT_NAME><OBJECT_ID>2021-045AH</OBJECT_ID><CENTER_NAME>EARTH</CENTER_NAME><REF_FRAME>TEME</REF_FRAME><TIME_SYSTEM>UTC</TIME_SYSTEM><MEAN_ELEMENT_THEORY>SGP4</MEAN_ELEMENT_THEORY></metadata><data><meanElements><EPOCH>2024-10-10T06:21:35.977536</EPOCH><MEAN_MOTION>13.15553258</MEAN_MOTION><ECCENTRICITY>.0002614</ECCENTRICITY><INCLINATION>87.9121</INCLINATION><RA_OF_ASC_NODE>21.5668</RA_OF_ASC_NODE><ARG_OF_PERICENTER>96.1496</ARG_OF_PERICENTER><MEAN_ANOMALY>263.9932</MEAN_ANOMALY></meanElements><tleParameters><EPHEMERIS_TYPE>0</EPHEMERIS_TYPE><CLASSIFICATION_TYPE>U</CLASSIFICATION_TYPE><NORAD_CAT_ID>48798</NORAD_CAT_ID><ELEMENT_SET_NO>999</ELEMENT_SET_NO><REV_AT_EPOCH>16356</REV_AT_EPOCH><BSTAR>.82492E-3</BSTAR><MEAN_MOTION_DOT>.323E-5</MEAN_MOTION_DOT><MEAN_MOTION_DDOT>0</MEAN_MOTION_DDOT></tleParameters></data></segment></body></omm>
<omm id="CCSDS_OMM_VERS" version="2.0">
<header><CREATION_DATE/><ORIGINATOR/></header><body><segment><metadata><OBJECT_NAME>ONEWEB-0225</OBJECT_NAME><OBJECT_ID>2021-045AJ</OBJECT_ID><CENTER_NAME>EARTH</CENTER_NAME><REF_FRAME>TEME</REF_FRAME><TIME_SYSTEM>UTC</TIME_SYSTEM><MEAN_ELEMENT_THEORY>SGP4</MEAN_ELEMENT_THEORY></metadata><data><meanElements><EPOCH>2024-10-10T12:22:07.352832</EPOCH><MEAN_MOTION>13.15551717</MEAN_MOTION><ECCENTRICITY>.0002287</ECCENTRICITY><INCLINATION>87.9129</INCLINATION><RA_OF_ASC_NODE>21.5346</RA_OF_ASC_NODE><ARG_OF_PERICENTER>102.8835</ARG_OF_PERICENTER><MEAN_ANOMALY>257.2551</MEAN_ANOMALY></meanElements><tleParameters><EPHEMERIS_TYPE>0</EPHEMERIS_TYPE><CLASSIFICATION_TYPE>U</CLASSIFICATION_TYPE><NORAD_CAT_ID>48799</NORAD_CAT_ID><ELEMENT_SET_NO>999</ELEMENT_SET_NO><REV_AT_EPOCH>16360</REV_AT_EPOCH><BSTAR>.15839E-3</BSTAR><MEAN_MOTION_DOT>.72E-6</MEAN_MOTION_DOT><MEAN_MOTION_DDOT>0</MEAN_MOTION_DDOT></tleParameters></data></segment></body></omm>
<omm id="CCSDS_OMM_VERS" version="2.0">
<header><CREATION_DATE/><ORIGINATOR/></header><body><segment><metadata><OBJECT_NAME>ONEWEB-0215</OBJECT_NAME><OBJECT_ID>2021-045AK</OBJECT_ID><CENTER_NAME>EARTH</CENTER_NAME><REF_FRAME>TEME</REF_FRAME><TIME_SYSTEM>UTC</TIME_SYSTEM><MEAN_ELEMENT_THEORY>SGP4</MEAN_ELEMENT_THEORY></metadata><data><meanElements><EPOCH>2024-10-10T18:56:51.435744</EPOCH><MEAN_MOTION>13.15548311</MEAN_MOTION><ECCENTRICITY>.0002683</ECCENTRICITY><INCLINATION>87.9118</INCLINATION><RA_OF_ASC_NODE>21.4478</RA_OF_ASC_NODE><ARG_OF_PERICENTER>98.9631</ARG_OF_PERICENTER><MEAN_ANOMALY>261.1803</MEAN_ANOMALY></meanElements><tleParameters><EPHEMERIS_TYPE>0</EPHEMERIS_TYPE><CLASSIFICATION_TYPE>U</CLASSIFICATION_TYPE><NORAD_CAT_ID>48800</NORAD_CAT_ID><ELEMENT_SET_NO>999</ELEMENT_SET_NO><REV_AT_EPOCH>16463</REV_AT_EPOCH><BSTAR>-.1213E-3</BSTAR><MEAN_MOTION_DOT>-.33E-6</MEAN_MOTION_DOT><MEAN_MOTION_DDOT>0</MEAN_MOTION_DDOT></tleParameters></data></segment></body></omm>
<omm id="CCSDS_OMM_VERS" version="2.0">
<header><CREATION_DATE/><ORIGINATOR/></header><body><segment><metadata><OBJECT_NAME>ONEWEB-0216</OBJECT_NAME><OBJECT_ID>2021-045AL</OBJECT_ID><CENTER_NAME>EARTH</CENTER_NAME><REF_FRAME>TEME</REF_FRAME><TIME_SYSTEM>UTC</TIME_SYSTEM><MEAN_ELEMENT_THEORY>SGP4</MEAN_ELEMENT_THEORY></metadata><data><meanElements><EPOCH>2024-10-10T13:41:58.308000</EPOCH><MEAN_MOTION>13.15581472</MEAN_MOTION><ECCENTRICITY>.000209</ECCENTRICITY><INCLINATION>87.9121</INCLINATION><RA_OF_ASC_NODE>21.5337</RA_OF_ASC_NODE><ARG_OF_PERICENTER>99.6449</ARG_OF_PERICENTER><MEAN_ANOMALY>260.4917</MEAN_ANOMALY></meanElements><tleParameters><EPHEMERIS_TYPE>0</EPHEMERIS_TYPE><CLASSIFICATION_TYPE>U</CLASSIFICATION_TYPE><NORAD_CAT_ID>48801</NORAD_CAT_ID><ELEMENT_SET_NO>999</ELEMENT_SET_NO><REV_AT_EPOCH>16349</REV_AT_EPOCH><BSTAR>-.14862E-1</BSTAR><MEAN_MOTION_DOT>-.5581E-4</MEAN_MOTION_DOT><MEAN_MOTION_DDOT>0</MEAN_MOTION_DDOT></tleParameters></data></segment></body></omm>
<omm id="CCSDS_OMM_VERS" version="2.0">
<header><CREATION_DATE/><ORIGINATOR/></header><body><segment><metadata><OBJECT_NAME>ONEWEB-0239</OBJECT_NAME><OBJECT_ID>2021-045AM</OBJECT_ID><CENTER_NAME>EARTH</CENTER_NAME><REF_FRAME>TEME</REF_FRAME><TIME_SYSTEM>UTC</TIME_SYSTEM><MEAN_ELEMENT_THEORY>SGP4</MEAN_ELEMENT_THEORY></metadata><data><meanElements><EPOCH>2024-10-10T19:17:24.935712</EPOCH><MEAN_MOTION>13.15549387</MEAN_MOTION><ECCENTRICITY>.0002753</ECCENTRICITY><INCLINATION>87.9131</INCLINATION><RA_OF_ASC_NODE>21.4733</RA_OF_ASC_NODE><ARG_OF_PERICENTER>94.8039</ARG_OF_PERICENTER><MEAN_ANOMALY>265.3405</MEAN_ANOMALY></meanElements><tleParameters><EPHEMERIS_TYPE>0</EPHEMERIS_TYPE><CLASSIFICATION_TYPE>U</CLASSIFICATION_TYPE><NORAD_CAT_ID>48802</NORAD_CAT_ID><ELEMENT_SET_NO>999</ELEMENT_SET_NO><REV_AT_EPOCH>16470</REV_AT_EPOCH><BSTAR>.27216E-3</BSTAR><MEAN_MOTION_DOT>.115E-5</MEAN_MOTION_DOT><MEAN_MOTION_DDOT>0</MEAN_MOTION_DDOT></tleParameters></data></segment></body></omm>

</ndm>
